{"type":"FeatureCollection","features":[{"type":"Feature","geometry":{"type":"Point","coordinates":[140.192585,35.185047]},"properties":{"rank":1,"name":"合成第1山社","score":100.0,"iso_score":100.0,"p_sum":0,"d_nearest_m":null,"n_adjacent":0,"n_inner":0,"n_outer":0,"nuisance_mult":1.0,"nuisance_flags":"","fame_mult":1.0,"fame_flags":"","steps_matched":true,"steps_match_dist_m":15.0,"steps_total_length_m":164.8,"steps_elev_diff_m":36.3,"elev_low_precision":false,"est_steps_min":120,"est_steps_max":201,"step_count_tag":148,"road_checked":false,"road_dist_m":null,"hokora":false,"dist_home_km":64.0,"lat":35.185047,"lon":140.192585,"osm":"node/3000","osm_url":"https://www.openstreetmap.org/node/3000","link_gsi":"https://maps.gsi.go.jp/#17/35.185047/140.192585/","link_gmap":"https://www.google.com/maps/search/?api=1&query=35.185047%2C140.192585","link_sv":"https://www.google.com/maps/@?api=1&map_action=pano&viewpoint=35.185047%2C140.192585","link_dir":"https://www.google.com/maps/dir/?api=1&destination=35.185047%2C140.192585&travelmode=driving"}},{"type":"Feature","geometry":{"type":"Point","coordinates":[140.173374,35.164301]},"properties":{"rank":2,"name":"合成第3山社","score":100.0,"iso_score":100.0,"p_sum":0,"d_nearest_m":null,"n_adjacent":0,"n_inner":0,"n_outer":0,"nuisance_mult":1.0,"nuisance_flags":"","fame_mult":1.0,"fame_flags":"","steps_matched":false,"steps_match_dist_m":null,"steps_total_length_m":null,"steps_elev_diff_m":null,"elev_low_precision":false,"est_steps_min":null,"est_steps_max":null,"step_count_tag":null,"road_checked":false,"road_dist_m":null,"hokora":false,"dist_home_km":65.1,"lat":35.164301,"lon":140.173374,"osm":"node/3002","osm_url":"https://www.openstreetmap.org/node/3002","link_gsi":"https://maps.gsi.go.jp/#17/35.164301/140.173374/","link_gmap":"https://www.google.com/maps/search/?api=1&query=35.164301%2C140.173374","link_sv":"https://www.google.com/maps/@?api=1&map_action=pano&viewpoint=35.164301%2C140.173374","link_dir":"https://www.google.com/maps/dir/?api=1&destination=35.164301%2C140.173374&travelmode=driving"}},{"type":"Feature","geometry":{"type":"Point","coordinates":[140.14641,35.258602]},"properties":{"rank":3,"name":"合成第5山社","score":100.0,"iso_score":100.0,"p_sum":0,"d_nearest_m":null,"n_adjacent":0,"n_inner":0,"n_outer":0,"nuisance_mult":1.0,"nuisance_flags":"","fame_mult":1.0,"fame_flags":"","steps_matched":false,"steps_match_dist_m":null,"steps_total_length_m":null,"steps_elev_diff_m":null,"elev_low_precision":false,"est_steps_min":null,"est_steps_max":null,"step_count_tag":null,"road_checked":false,"road_dist_m":null,"hokora":false,"dist_home_km":54.9,"lat":35.258602,"lon":140.14641,"osm":"node/3004","osm_url":"https://www.openstreetmap.org/node/3004","link_gsi":"https://maps.gsi.go.jp/#17/35.258602/140.146410/","link_gmap":"https://www.google.com/maps/search/?api=1&query=35.258602%2C140.146410","link_sv":"https://www.google.com/maps/@?api=1&map_action=pano&viewpoint=35.258602%2C140.146410","link_dir":"https://www.google.com/maps/dir/?api=1&destination=35.258602%2C140.146410&travelmode=driving"}},{"type":"Feature","geometry":{"type":"Point","coordinates":[140.144858,35.165906]},"properties":{"rank":4,"name":"合成第6山社","score":99.51,"iso_score":99.51,"p_sum":0.0123,"d_nearest_m":791.3,"n_adjacent":0,"n_inner":0,"n_outer":0,"nuisance_mult":1.0,"nuisance_flags":"","fame_mult":1.0,"fame_flags":"","steps_matched":false,"steps_match_dist_m":null,"steps_total_length_m":null,"steps_elev_diff_m":null,"elev_low_precision":false,"est_steps_min":null,"est_steps_max":null,"step_count_tag":null,"road_checked":false,"road_dist_m":null,"hokora":false,"dist_home_km":63.7,"lat":35.165906,"lon":140.144858,"osm":"node/3005","osm_url":"https://www.openstreetmap.org/node/3005","link_gsi":"https://maps.gsi.go.jp/#17/35.165906/140.144858/","link_gmap":"https://www.google.com/maps/search/?api=1&query=35.165906%2C140.144858","link_sv":"https://www.google.com/maps/@?api=1&map_action=pano&viewpoint=35.165906%2C140.144858","link_dir":"https://www.google.com/maps/dir/?api=1&destination=35.165906%2C140.144858&travelmode=driving"}},{"type":"Feature","geometry":{"type":"Point","coordinates":[140.191358,35.16579]},"properties":{"rank":5,"name":"合成第7山社","score":97.33,"iso_score":97.33,"p_sum":0.0675,"d_nearest_m":485.1,"n_adjacent":0,"n_inner":0,"n_outer":1,"nuisance_mult":1.0,"nuisance_flags":"","fame_mult":1.0,"fame_flags":"","steps_matched":true,"steps_match_dist_m":15.0,"steps_total_length_m":164.8,"steps_elev_diff_m":36.3,"elev_low_precision":false,"est_steps_min":120,"est_steps_max":201,"step_count_tag":null,"road_checked":false,"road_dist_m":null,"hokora":false,"dist_home_km":65.8,"lat":35.16579,"lon":140.191358,"osm":"node/3006","osm_url":"https://www.openstreetmap.org/node/3006","link_gsi":"https://maps.gsi.go.jp/#17/35.165790/140.191358/","link_gmap":"https://www.google.com/maps/search/?api=1&query=35.165790%2C140.191358","link_sv":"https://www.google.com/maps/@?api=1&map_action=pano&viewpoint=35.165790%2C140.191358","link_dir":"https://www.google.com/maps/dir/?api=1&destination=35.165790%2C140.191358&travelmode=driving"}},{"type":"Feature","geometry":{"type":"Point","coordinates":[140.19439,35.21453]},"properties":{"rank":6,"name":"合成第9山社","score":96.6,"iso_score":96.6,"p_sum":0.0865,"d_nearest_m":440.6,"n_adjacent":0,"n_inner":0,"n_outer":1,"nuisance_mult":1.0,"nuisance_flags":"","fame_mult":1.0,"fame_flags":"","steps_matched":false,"steps_match_dist_m":null,"steps_total_length_m":null,"steps_elev_diff_m":null,"elev_low_precision":false,"est_steps_min":null,"est_steps_max":null,"step_count_tag":null,"road_checked":false,"road_dist_m":null,"hokora":false,"dist_home_km":61.4,"lat":35.21453,"lon":140.19439,"osm":"node/3008","osm_url":"https://www.openstreetmap.org/node/3008","link_gsi":"https://maps.gsi.go.jp/#17/35.214530/140.194390/","link_gmap":"https://www.google.com/maps/search/?api=1&query=35.214530%2C140.194390","link_sv":"https://www.google.com/maps/@?api=1&map_action=pano&viewpoint=35.214530%2C140.194390","link_dir":"https://www.google.com/maps/dir/?api=1&destination=35.214530%2C140.194390&travelmode=driving"}},{"type":"Feature","geometry":{"type":"Point","coordinates":[140.148757,35.166226]},"properties":{"rank":7,"name":"合成第2山社","score":96.54,"iso_score":96.54,"p_sum":0.088,"d_nearest_m":437.4,"n_adjacent":0,"n_inner":0,"n_outer":1,"nuisance_mult":1.0,"nuisance_flags":"","fame_mult":1.0,"fame_flags":"","steps_matched":false,"steps_match_dist_m":null,"steps_total_length_m":null,"steps_elev_diff_m":null,"elev_low_precision":false,"est_steps_min":null,"est_steps_max":null,"step_count_tag":null,"road_checked":false,"road_dist_m":null,"hokora":false,"dist_home_km":63.9,"lat":35.166226,"lon":140.148757,"osm":"node/3001","osm_url":"https://www.openstreetmap.org/node/3001","link_gsi":"https://maps.gsi.go.jp/#17/35.166226/140.148757/","link_gmap":"https://www.google.com/maps/search/?api=1&query=35.166226%2C140.148757","link_sv":"https://www.google.com/maps/@?api=1&map_action=pano&viewpoint=35.166226%2C140.148757","link_dir":"https://www.google.com/maps/dir/?api=1&destination=35.166226%2C140.148757&travelmode=driving"}},{"type":"Feature","geometry":{"type":"Point","coordinates":[140.182392,35.27108]},"properties":{"rank":8,"name":"合成第4山社","score":95.77,"iso_score":95.77,"p_sum":0.108,"d_nearest_m":400.6,"n_adjacent":0,"n_inner":0,"n_outer":1,"nuisance_mult":1.0,"nuisance_flags":"","fame_mult":1.0,"fame_flags":"","steps_matched":true,"steps_match_dist_m":15.0,"steps_total_length_m":164.8,"steps_elev_diff_m":36.3,"elev_low_precision":false,"est_steps_min":121,"est_steps_max":201,"step_count_tag":null,"road_checked":false,"road_dist_m":null,"hokora":false,"dist_home_km":55.6,"lat":35.27108,"lon":140.182392,"osm":"node/3003","osm_url":"https://www.openstreetmap.org/node/3003","link_gsi":"https://maps.gsi.go.jp/#17/35.271080/140.182392/","link_gmap":"https://www.google.com/maps/search/?api=1&query=35.271080%2C140.182392","link_sv":"https://www.google.com/maps/@?api=1&map_action=pano&viewpoint=35.271080%2C140.182392","link_dir":"https://www.google.com/maps/dir/?api=1&destination=35.271080%2C140.182392&travelmode=driving"}},{"type":"Feature","geometry":{"type":"Point","coordinates":[140.188774,35.210918]},"properties":{"rank":9,"name":"合成第8山社","score":95.41,"iso_score":95.41,"p_sum":0.1174,"d_nearest_m":385.6,"n_adjacent":0,"n_inner":0,"n_outer":1,"nuisance_mult":1.0,"nuisance_flags":"","fame_mult":1.0,"fame_flags":"","steps_matched":false,"steps_match_dist_m":null,"steps_total_length_m":null,"steps_elev_diff_m":null,"elev_low_precision":false,"est_steps_min":null,"est_steps_max":null,"step_count_tag":null,"road_checked":false,"road_dist_m":null,"hokora":false,"dist_home_km":61.4,"lat":35.210918,"lon":140.188774,"osm":"node/3007","osm_url":"https://www.openstreetmap.org/node/3007","link_gsi":"https://maps.gsi.go.jp/#17/35.210918/140.188774/","link_gmap":"https://www.google.com/maps/search/?api=1&query=35.210918%2C140.188774","link_sv":"https://www.google.com/maps/@?api=1&map_action=pano&viewpoint=35.210918%2C140.188774","link_dir":"https://www.google.com/maps/dir/?api=1&destination=35.210918%2C140.188774&travelmode=driving"}},{"type":"Feature","geometry":{"type":"Point","coordinates":[140.14816,35.231864]},"properties":{"rank":10,"name":"合成第8辺社","score":67.55,"iso_score":67.55,"p_sum":0.9807,"d_nearest_m":269.1,"n_adjacent":0,"n_inner":0,"n_outer":7,"nuisance_mult":1.0,"nuisance_flags":"","fame_mult":1.0,"fame_flags":"","steps_matched":false,"steps_match_dist_m":null,"steps_total_length_m":null,"steps_elev_diff_m":null,"elev_low_precision":false,"est_steps_min":null,"est_steps_max":null,"step_count_tag":null,"road_checked":false,"road_dist_m":null,"hokora":false,"dist_home_km":57.5,"lat":35.231864,"lon":140.14816,"osm":"node/2007","osm_url":"https://www.openstreetmap.org/node/2007","link_gsi":"https://maps.gsi.go.jp/#17/35.231864/140.148160/","link_gmap":"https://www.google.com/maps/search/?api=1&query=35.231864%2C140.148160","link_sv":"https://www.google.com/maps/@?api=1&map_action=pano&viewpoint=35.231864%2C140.148160","link_dir":"https://www.google.com/maps/dir/?api=1&destination=35.231864%2C140.148160&travelmode=driving"}},{"type":"Feature","geometry":{"type":"Point","coordinates":[140.012054,35.253899]},"properties":{"rank":11,"name":"合成大社","score":62.91,"iso_score":96.76,"p_sum":0.0823,"d_nearest_m":449.5,"n_adjacent":0,"n_inner":0,"n_outer":1,"nuisance_mult":1.0,"nuisance_flags":"","fame_mult":0.6502,"fame_flags":"wikipedia;wikidata;tourism","steps_matched":false,"steps_match_dist_m":null,"steps_total_length_m":null,"steps_elev_diff_m":null,"elev_low_precision":false,"est_steps_min":null,"est_steps_max":null,"step_count_tag":null,"road_checked":false,"road_dist_m":null,"hokora":false,"dist_home_km":49.8,"lat":35.253899,"lon":140.012054,"osm":"node/4000","osm_url":"https://www.openstreetmap.org/node/4000","link_gsi":"https://maps.gsi.go.jp/#17/35.253899/140.012054/","link_gmap":"https://www.google.com/maps/search/?api=1&query=35.253899%2C140.012054","link_sv":"https://www.google.com/maps/@?api=1&map_action=pano&viewpoint=35.253899%2C140.012054","link_dir":"https://www.google.com/maps/dir/?api=1&destination=35.253899%2C140.012054&travelmode=driving"}},{"type":"Feature","geometry":{"type":"Point","coordinates":[140.069682,35.23574]},"properties":{"rank":12,"name":"合成第3辺社","score":54.95,"iso_score":54.95,"p_sum":1.4967,"d_nearest_m":208.0,"n_adjacent":0,"n_inner":0,"n_outer":7,"nuisance_mult":1.0,"nuisance_flags":"","fame_mult":1.0,"fame_flags":"","steps_matched":false,"steps_match_dist_m":null,"steps_total_length_m":null,"steps_elev_diff_m":null,"elev_low_precision":false,"est_steps_min":null,"est_steps_max":null,"step_count_tag":null,"road_checked":false,"road_dist_m":null,"hokora":false,"dist_home_km":53.7,"lat":35.23574,"lon":140.069682,"osm":"node/2002","osm_url":"https://www.openstreetmap.org/node/2002","link_gsi":"https://maps.gsi.go.jp/#17/35.235740/140.069682/","link_gmap":"https://www.google.com/maps/search/?api=1&query=35.235740%2C140.069682","link_sv":"https://www.google.com/maps/@?api=1&map_action=pano&viewpoint=35.235740%2C140.069682","link_dir":"https://www.google.com/maps/dir/?api=1&destination=35.235740%2C140.069682&travelmode=driving"}},{"type":"Feature","geometry":{"type":"Point","coordinates":[140.085076,35.184784]},"properties":{"rank":13,"name":"合成第7辺社","score":54.83,"iso_score":54.83,"p_sum":1.5023,"d_nearest_m":250.7,"n_adjacent":0,"n_inner":0,"n_outer":10,"nuisance_mult":1.0,"nuisance_flags":"","fame_mult":1.0,"fame_flags":"","steps_matched":false,"steps_match_dist_m":null,"steps_total_length_m":null,"steps_elev_diff_m":null,"elev_low_precision":false,"est_steps_min":null,"est_steps_max":null,"step_count_tag":null,"road_checked":false,"road_dist_m":null,"hokora":false,"dist_home_km":59.5,"lat":35.184784,"lon":140.085076,"osm":"node/2006","osm_url":"https://www.openstreetmap.org/node/2006","link_gsi":"https://maps.gsi.go.jp/#17/35.184784/140.085076/","link_gmap":"https://www.google.com/maps/search/?api=1&query=35.184784%2C140.085076","link_sv":"https://www.google.com/maps/@?api=1&map_action=pano&viewpoint=35.184784%2C140.085076","link_dir":"https://www.google.com/maps/dir/?api=1&destination=35.184784%2C140.085076&travelmode=driving"}},{"type":"Feature","geometry":{"type":"Point","coordinates":[140.04609,35.166904]},"properties":{"rank":14,"name":"合成第6辺社","score":51.53,"iso_score":51.53,"p_sum":1.6573,"d_nearest_m":212.8,"n_adjacent":0,"n_inner":0,"n_outer":8,"nuisance_mult":1.0,"nuisance_flags":"","fame_mult":1.0,"fame_flags":"","steps_matched":false,"steps_match_dist_m":null,"steps_total_length_m":null,"steps_elev_diff_m":null,"elev_low_precision":false,"est_steps_min":null,"est_steps_max":null,"step_count_tag":null,"road_checked":false,"road_dist_m":null,"hokora":false,"dist_home_km":60.0,"lat":35.166904,"lon":140.04609,"osm":"node/2005","osm_url":"https://www.openstreetmap.org/node/2005","link_gsi":"https://maps.gsi.go.jp/#17/35.166904/140.046090/","link_gmap":"https://www.google.com/maps/search/?api=1&query=35.166904%2C140.046090","link_sv":"https://www.google.com/maps/@?api=1&map_action=pano&viewpoint=35.166904%2C140.046090","link_dir":"https://www.google.com/maps/dir/?api=1&destination=35.166904%2C140.046090&travelmode=driving"}},{"type":"Feature","geometry":{"type":"Point","coordinates":[140.159727,35.228671]},"properties":{"rank":15,"name":"合成第5辺社","score":51.47,"iso_score":51.47,"p_sum":1.6605,"d_nearest_m":280.3,"n_adjacent":0,"n_inner":0,"n_outer":11,"nuisance_mult":1.0,"nuisance_flags":"","fame_mult":1.0,"fame_flags":"","steps_matched":false,"steps_match_dist_m":null,"steps_total_length_m":null,"steps_elev_diff_m":null,"elev_low_precision":false,"est_steps_min":null,"est_steps_max":null,"step_count_tag":null,"road_checked":false,"road_dist_m":null,"hokora":false,"dist_home_km":58.3,"lat":35.228671,"lon":140.159727,"osm":"node/2004","osm_url":"https://www.openstreetmap.org/node/2004","link_gsi":"https://maps.gsi.go.jp/#17/35.228671/140.159727/","link_gmap":"https://www.google.com/maps/search/?api=1&query=35.228671%2C140.159727","link_sv":"https://www.google.com/maps/@?api=1&map_action=pano&viewpoint=35.228671%2C140.159727","link_dir":"https://www.google.com/maps/dir/?api=1&destination=35.228671%2C140.159727&travelmode=driving"}},{"type":"Feature","geometry":{"type":"Point","coordinates":[140.03404,35.137118]},"properties":{"rank":16,"name":"合成日照神社","score":50.0,"iso_score":100.0,"p_sum":0,"d_nearest_m":null,"n_adjacent":0,"n_inner":0,"n_outer":0,"nuisance_mult":0.5,"nuisance_flags":"solar@112m","fame_mult":1.0,"fame_flags":"","steps_matched":false,"steps_match_dist_m":null,"steps_total_length_m":null,"steps_elev_diff_m":null,"elev_low_precision":false,"est_steps_min":null,"est_steps_max":null,"step_count_tag":null,"road_checked":false,"road_dist_m":null,"hokora":false,"dist_home_km":62.8,"lat":35.137118,"lon":140.03404,"osm":"node/5000","osm_url":"https://www.openstreetmap.org/node/5000","link_gsi":"https://maps.gsi.go.jp/#17/35.137118/140.034040/","link_gmap":"https://www.google.com/maps/search/?api=1&query=35.137118%2C140.034040","link_sv":"https://www.google.com/maps/@?api=1&map_action=pano&viewpoint=35.137118%2C140.034040","link_dir":"https://www.google.com/maps/dir/?api=1&destination=35.137118%2C140.034040&travelmode=driving"}},{"type":"Feature","geometry":{"type":"Point","coordinates":[140.101384,35.149709]},"properties":{"rank":17,"name":"合成第9辺社","score":47.86,"iso_score":47.86,"p_sum":1.8422,"d_nearest_m":283.6,"n_adjacent":0,"n_inner":0,"n_outer":14,"nuisance_mult":1.0,"nuisance_flags":"","fame_mult":1.0,"fame_flags":"","steps_matched":false,"steps_match_dist_m":null,"steps_total_length_m":null,"steps_elev_diff_m":null,"elev_low_precision":false,"est_steps_min":null,"est_steps_max":null,"step_count_tag":null,"road_checked":false,"road_dist_m":null,"hokora":false,"dist_home_km":63.6,"lat":35.149709,"lon":140.101384,"osm":"node/2008","osm_url":"https://www.openstreetmap.org/node/2008","link_gsi":"https://maps.gsi.go.jp/#17/35.149709/140.101384/","link_gmap":"https://www.google.com/maps/search/?api=1&query=35.149709%2C140.101384","link_sv":"https://www.google.com/maps/@?api=1&map_action=pano&viewpoint=35.149709%2C140.101384","link_dir":"https://www.google.com/maps/dir/?api=1&destination=35.149709%2C140.101384&travelmode=driving"}},{"type":"Feature","geometry":{"type":"Point","coordinates":[140.154911,35.204207]},"properties":{"rank":18,"name":"合成第10辺社","score":47.09,"iso_score":47.09,"p_sum":1.8829,"d_nearest_m":268.0,"n_adjacent":0,"n_inner":0,"n_outer":11,"nuisance_mult":1.0,"nuisance_flags":"","fame_mult":1.0,"fame_flags":"","steps_matched":false,"steps_match_dist_m":null,"steps_total_length_m":null,"steps_elev_diff_m":null,"elev_low_precision":false,"est_steps_min":null,"est_steps_max":null,"step_count_tag":null,"road_checked":false,"road_dist_m":null,"hokora":false,"dist_home_km":60.4,"lat":35.204207,"lon":140.154911,"osm":"node/2009","osm_url":"https://www.openstreetmap.org/node/2009","link_gsi":"https://maps.gsi.go.jp/#17/35.204207/140.154911/","link_gmap":"https://www.google.com/maps/search/?api=1&query=35.204207%2C140.154911","link_sv":"https://www.google.com/maps/@?api=1&map_action=pano&viewpoint=35.204207%2C140.154911","link_dir":"https://www.google.com/maps/dir/?api=1&destination=35.204207%2C140.154911&travelmode=driving"}},{"type":"Feature","geometry":{"type":"Point","coordinates":[140.095576,35.169799]},"properties":{"rank":19,"name":"合成第1辺社","score":43.77,"iso_score":43.77,"p_sum":2.0658,"d_nearest_m":274.1,"n_adjacent":0,"n_inner":0,"n_outer":13,"nuisance_mult":1.0,"nuisance_flags":"","fame_mult":1.0,"fame_flags":"","steps_matched":false,"steps_match_dist_m":null,"steps_total_length_m":null,"steps_elev_diff_m":null,"elev_low_precision":false,"est_steps_min":null,"est_steps_max":null,"step_count_tag":null,"road_checked":false,"road_dist_m":null,"hokora":false,"dist_home_km":61.4,"lat":35.169799,"lon":140.095576,"osm":"node/2000","osm_url":"https://www.openstreetmap.org/node/2000","link_gsi":"https://maps.gsi.go.jp/#17/35.169799/140.095576/","link_gmap":"https://www.google.com/maps/search/?api=1&query=35.169799%2C140.095576","link_sv":"https://www.google.com/maps/@?api=1&map_action=pano&viewpoint=35.169799%2C140.095576","link_dir":"https://www.google.com/maps/dir/?api=1&destination=35.169799%2C140.095576&travelmode=driving"}},{"type":"Feature","geometry":{"type":"Point","coordinates":[140.039795,35.178179]},"properties":{"rank":20,"name":"合成第4辺社","score":38.39,"iso_score":38.39,"p_sum":2.3933,"d_nearest_m":248.2,"n_adjacent":0,"n_inner":0,"n_outer":15,"nuisance_mult":1.0,"nuisance_flags":"","fame_mult":1.0,"fame_flags":"","steps_matched":false,"steps_match_dist_m":null,"steps_total_length_m":null,"steps_elev_diff_m":null,"elev_low_precision":false,"est_steps_min":null,"est_steps_max":null,"step_count_tag":null,"road_checked":false,"road_dist_m":null,"hokora":false,"dist_home_km":58.6,"lat":35.178179,"lon":140.039795,"osm":"node/2003","osm_url":"https://www.openstreetmap.org/node/2003","link_gsi":"https://maps.gsi.go.jp/#17/35.178179/140.039795/","link_gmap":"https://www.google.com/maps/search/?api=1&query=35.178179%2C140.039795","link_sv":"https://www.google.com/maps/@?api=1&map_action=pano&viewpoint=35.178179%2C140.039795","link_dir":"https://www.google.com/maps/dir/?api=1&destination=35.178179%2C140.039795&travelmode=driving"}},{"type":"Feature","geometry":{"type":"Point","coordinates":[140.118981,35.172554]},"properties":{"rank":21,"name":"合成第2辺社","score":33.25,"iso_score":33.25,"p_sum":2.753,"d_nearest_m":191.2,"n_adjacent":0,"n_inner":0,"n_outer":12,"nuisance_mult":1.0,"nuisance_flags":"","fame_mult":1.0,"fame_flags":"","steps_matched":false,"steps_match_dist_m":null,"steps_total_length_m":null,"steps_elev_diff_m":null,"elev_low_precision":false,"est_steps_min":null,"est_steps_max":null,"step_count_tag":null,"road_checked":false,"road_dist_m":null,"hokora":false,"dist_home_km":62.0,"lat":35.172554,"lon":140.118981,"osm":"node/2001","osm_url":"https://www.openstreetmap.org/node/2001","link_gsi":"https://maps.gsi.go.jp/#17/35.172554/140.118981/","link_gmap":"https://www.google.com/maps/search/?api=1&query=35.172554%2C140.118981","link_sv":"https://www.google.com/maps/@?api=1&map_action=pano&viewpoint=35.172554%2C140.118981","link_dir":"https://www.google.com/maps/dir/?api=1&destination=35.172554%2C140.118981&travelmode=driving"}},{"type":"Feature","geometry":{"type":"Point","coordinates":[140.137428,35.217638]},"properties":{"rank":22,"name":"合成第6村社","score":6.38,"iso_score":6.38,"p_sum":6.8791,"d_nearest_m":105.9,"n_adjacent":0,"n_inner":2,"n_outer":29,"nuisance_mult":1.0,"nuisance_flags":"","fame_mult":1.0,"fame_flags":"","steps_matched":false,"steps_match_dist_m":null,"steps_total_length_m":null,"steps_elev_diff_m":null,"elev_low_precision":false,"est_steps_min":null,"est_steps_max":null,"step_count_tag":null,"road_checked":false,"road_dist_m":null,"hokora":false,"dist_home_km":58.4,"lat":35.217638,"lon":140.137428,"osm":"node/1005","osm_url":"https://www.openstreetmap.org/node/1005","link_gsi":"https://maps.gsi.go.jp/#17/35.217638/140.137428/","link_gmap":"https://www.google.com/maps/search/?api=1&query=35.217638%2C140.137428","link_sv":"https://www.google.com/maps/@?api=1&map_action=pano&viewpoint=35.217638%2C140.137428","link_dir":"https://www.google.com/maps/dir/?api=1&destination=35.217638%2C140.137428&travelmode=driving"}},{"type":"Feature","geometry":{"type":"Point","coordinates":[140.122897,35.230116]},"properties":{"rank":23,"name":"合成第3村社","score":6.26,"iso_score":6.26,"p_sum":6.9271,"d_nearest_m":71.3,"n_adjacent":1,"n_inner":4,"n_outer":22,"nuisance_mult":1.0,"nuisance_flags":"","fame_mult":1.0,"fame_flags":"","steps_matched":false,"steps_match_dist_m":null,"steps_total_length_m":null,"steps_elev_diff_m":null,"elev_low_precision":false,"est_steps_min":null,"est_steps_max":null,"step_count_tag":null,"road_checked":false,"road_dist_m":null,"hokora":false,"dist_home_km":56.5,"lat":35.230116,"lon":140.122897,"osm":"node/1002","osm_url":"https://www.openstreetmap.org/node/1002","link_gsi":"https://maps.gsi.go.jp/#17/35.230116/140.122897/","link_gmap":"https://www.google.com/maps/search/?api=1&query=35.230116%2C140.122897","link_sv":"https://www.google.com/maps/@?api=1&map_action=pano&viewpoint=35.230116%2C140.122897","link_dir":"https://www.google.com/maps/dir/?api=1&destination=35.230116%2C140.122897&travelmode=driving"}},{"type":"Feature","geometry":{"type":"Point","coordinates":[140.125309,35.167344]},"properties":{"rank":24,"name":"合成第4村社","score":1.82,"iso_score":1.82,"p_sum":10.0214,"d_nearest_m":43.7,"n_adjacent":0,"n_inner":10,"n_outer":22,"nuisance_mult":1.0,"nuisance_flags":"","fame_mult":1.0,"fame_flags":"","steps_matched":false,"steps_match_dist_m":null,"steps_total_length_m":null,"steps_elev_diff_m":null,"elev_low_precision":false,"est_steps_min":null,"est_steps_max":null,"step_count_tag":null,"road_checked":false,"road_dist_m":null,"hokora":false,"dist_home_km":62.8,"lat":35.167344,"lon":140.125309,"osm":"node/1003","osm_url":"https://www.openstreetmap.org/node/1003","link_gsi":"https://maps.gsi.go.jp/#17/35.167344/140.125309/","link_gmap":"https://www.google.com/maps/search/?api=1&query=35.167344%2C140.125309","link_sv":"https://www.google.com/maps/@?api=1&map_action=pano&viewpoint=35.167344%2C140.125309","link_dir":"https://www.google.com/maps/dir/?api=1&destination=35.167344%2C140.125309&travelmode=driving"}},{"type":"Feature","geometry":{"type":"Point","coordinates":[140.078797,35.211169]},"properties":{"rank":25,"name":"合成第5村社","score":1.57,"iso_score":1.57,"p_sum":10.3828,"d_nearest_m":42.5,"n_adjacent":0,"n_inner":8,"n_outer":27,"nuisance_mult":1.0,"nuisance_flags":"","fame_mult":1.0,"fame_flags":"","steps_matched":false,"steps_match_dist_m":null,"steps_total_length_m":null,"steps_elev_diff_m":null,"elev_low_precision":false,"est_steps_min":null,"est_steps_max":null,"step_count_tag":null,"road_checked":false,"road_dist_m":null,"hokora":false,"dist_home_km":56.6,"lat":35.211169,"lon":140.078797,"osm":"node/1004","osm_url":"https://www.openstreetmap.org/node/1004","link_gsi":"https://maps.gsi.go.jp/#17/35.211169/140.078797/","link_gmap":"https://www.google.com/maps/search/?api=1&query=35.211169%2C140.078797","link_sv":"https://www.google.com/maps/@?api=1&map_action=pano&viewpoint=35.211169%2C140.078797","link_dir":"https://www.google.com/maps/dir/?api=1&destination=35.211169%2C140.078797&travelmode=driving"}},{"type":"Feature","geometry":{"type":"Point","coordinates":[140.058969,35.219398]},"properties":{"rank":26,"name":"合成第1村社","score":0.91,"iso_score":0.91,"p_sum":11.7459,"d_nearest_m":65.1,"n_adjacent":1,"n_inner":5,"n_outer":42,"nuisance_mult":1.0,"nuisance_flags":"","fame_mult":1.0,"fame_flags":"","steps_matched":false,"steps_match_dist_m":null,"steps_total_length_m":null,"steps_elev_diff_m":null,"elev_low_precision":false,"est_steps_min":null,"est_steps_max":null,"step_count_tag":null,"road_checked":false,"road_dist_m":null,"hokora":false,"dist_home_km":55.0,"lat":35.219398,"lon":140.058969,"osm":"node/1000","osm_url":"https://www.openstreetmap.org/node/1000","link_gsi":"https://maps.gsi.go.jp/#17/35.219398/140.058969/","link_gmap":"https://www.google.com/maps/search/?api=1&query=35.219398%2C140.058969","link_sv":"https://www.google.com/maps/@?api=1&map_action=pano&viewpoint=35.219398%2C140.058969","link_dir":"https://www.google.com/maps/dir/?api=1&destination=35.219398%2C140.058969&travelmode=driving"}},{"type":"Feature","geometry":{"type":"Point","coordinates":[140.058291,35.228391]},"properties":{"rank":27,"name":"合成第2村社","score":0.35,"iso_score":0.35,"p_sum":14.1549,"d_nearest_m":41.8,"n_adjacent":2,"n_inner":8,"n_outer":48,"nuisance_mult":1.0,"nuisance_flags":"","fame_mult":1.0,"fame_flags":"","steps_matched":false,"steps_match_dist_m":null,"steps_total_length_m":null,"steps_elev_diff_m":null,"elev_low_precision":false,"est_steps_min":null,"est_steps_max":null,"step_count_tag":null,"road_checked":false,"road_dist_m":null,"hokora":false,"dist_home_km":54.1,"lat":35.228391,"lon":140.058291,"osm":"node/1001","osm_url":"https://www.openstreetmap.org/node/1001","link_gsi":"https://maps.gsi.go.jp/#17/35.228391/140.058291/","link_gmap":"https://www.google.com/maps/search/?api=1&query=35.228391%2C140.058291","link_sv":"https://www.google.com/maps/@?api=1&map_action=pano&viewpoint=35.228391%2C140.058291","link_dir":"https://www.google.com/maps/dir/?api=1&destination=35.228391%2C140.058291&travelmode=driving"}},{"type":"Feature","geometry":{"type":"Point","coordinates":[140.099679,35.182318]},"properties":{"rank":28,"name":"合成第7村社","score":0.29,"iso_score":0.29,"p_sum":14.6052,"d_nearest_m":66.9,"n_adjacent":0,"n_inner":5,"n_outer":54,"nuisance_mult":1.0,"nuisance_flags":"","fame_mult":1.0,"fame_flags":"","steps_matched":false,"steps_match_dist_m":null,"steps_total_length_m":null,"steps_elev_diff_m":null,"elev_low_precision":false,"est_steps_min":null,"est_steps_max":null,"step_count_tag":null,"road_checked":false,"road_dist_m":null,"hokora":false,"dist_home_km":60.3,"lat":35.182318,"lon":140.099679,"osm":"node/1006","osm_url":"https://www.openstreetmap.org/node/1006","link_gsi":"https://maps.gsi.go.jp/#17/35.182318/140.099679/","link_gmap":"https://www.google.com/maps/search/?api=1&query=35.182318%2C140.099679","link_sv":"https://www.google.com/maps/@?api=1&map_action=pano&viewpoint=35.182318%2C140.099679","link_dir":"https://www.google.com/maps/dir/?api=1&destination=35.182318%2C140.099679&travelmode=driving"}},{"type":"Feature","geometry":{"type":"Point","coordinates":[140.095791,35.22487]},"properties":{"rank":29,"name":"合成第8村社","score":0.12,"iso_score":0.12,"p_sum":16.7813,"d_nearest_m":40.5,"n_adjacent":0,"n_inner":11,"n_outer":48,"nuisance_mult":1.0,"nuisance_flags":"","fame_mult":1.0,"fame_flags":"","steps_matched":false,"steps_match_dist_m":null,"steps_total_length_m":null,"steps_elev_diff_m":null,"elev_low_precision":false,"est_steps_min":null,"est_steps_max":null,"step_count_tag":null,"road_checked":false,"road_dist_m":null,"hokora":false,"dist_home_km":55.9,"lat":35.22487,"lon":140.095791,"osm":"node/1007","osm_url":"https://www.openstreetmap.org/node/1007","link_gsi":"https://maps.gsi.go.jp/#17/35.224870/140.095791/","link_gmap":"https://www.google.com/maps/search/?api=1&query=35.224870%2C140.095791","link_sv":"https://www.google.com/maps/@?api=1&map_action=pano&viewpoint=35.224870%2C140.095791","link_dir":"https://www.google.com/maps/dir/?api=1&destination=35.224870%2C140.095791&travelmode=driving"}}]}